SAR-LUPE 2              
1 31797U 07030A   26158.85287794  .00009663  00000+0  18359-3 0  9991
2 31797  98.1024 262.1413 0008771 149.5428 210.6331 15.48488119 55496
SAPPHIRE                
1 39088U 13009C   26158.75033781  .00000134  00000+0  61819-4 0  9993
2 39088  98.4259 338.4305 0009981 278.1547  81.8506 14.35238045695221
PRAETORIAN SDA_602      
1 65565U 25203A   26158.70044179  .00000045  00000+0  29673-4 0  9992
2 65565  81.3037  19.5574 0005326 211.3203 148.7637 13.84342061 37389
PRAETORIAN SDA_603      
1 65566U 25203B   26158.72413079  .00000194  00000+0  16464-3 0  9992
2 65566  81.3045  19.4459 0008808 214.4445 145.6142 13.83904900 37393
PRAETORIAN SDA_604      
1 65567U 25203C   26158.73798446  .00000117  00000+0  96233-4 0  9996
2 65567  81.3060  19.8302 0004827 219.5342 140.5462 13.83046879 37370
PRAETORIAN SDA_605      
1 65568U 25203D   26158.70595506  .00000074  00000+0  56080-4 0  9994
2 65568  81.3024  19.5322 0007610 209.9036 150.1687 13.83433715 37382
PRAETORIAN SDA_606      
1 65569U 25203E   26158.68831884  .00000069  00000+0  52183-4 0  9998
2 65569  81.3060  19.7663 0005245 208.3417 151.7455 13.83406619 37373
PRAETORIAN SDA_607      
1 65570U 25203F   26158.70236566  .00000189  00000+0  15869-3 0  9991
2 65570  81.3045  19.4312 0008241 214.5374 145.5248 13.84283861 37392
PRAETORIAN SDA_608      
1 65571U 25203G   26158.67656365  .00000086  00000+0  67336-4 0  9994
2 65571  81.3012  19.6129 0005336 218.7419 141.3355 13.83816260 37378
PRAETORIAN SDA_609      
1 65572U 25203H   26158.68439618  .00000166  00000+0  13804-3 0  9995
2 65572  81.3057  19.5908 0006295 211.6015 148.4764 13.84284714 37388
PRAETORIAN SDA_610      
1 65573U 25203J   26158.72886112  .00000055  00000+0  39159-4 0  9995
2 65573  81.3014  19.5229 0005992 216.0266 144.0488 13.83851307 37380
PRAETORIAN SDA_611      
1 65574U 25203K   26158.72593385  .00000059  00000+0  43061-4 0  9994
2 65574  81.3017  19.6827 0004936 221.9828 138.0951 13.83308854 37376
PRAETORIAN SDA_612      
1 65575U 25203L   26158.72735267  .00000269  00000+0  22721-3 0  9994
2 65575  81.3033  19.2917 0008626 213.3006 146.7609 13.85038892 37408
PRAETORIAN SDA_613      
1 65576U 25203M   26158.72896042  .00000050  00000+0  35102-4 0  9990
2 65576  81.3006  19.6703 0005086 211.2860 148.7994 13.82764393 37372
PRAETORIAN SDA_614      
1 65577U 25203N   26158.71475007  .00000064  00000+0  46017-4 0  9996
2 65577  81.3020  19.3788 0006548 210.6834 149.3941 13.84777780 37406
PRAETORIAN SDA_615      
1 65578U 25203P   26158.68929807  .00000157  00000+0  12926-3 0  9999
2 65578  81.3030  19.3605 0008452 212.5443 147.5194 13.84435646 37399
PRAETORIAN SDA_616      
1 65579U 25203Q   26158.72486451  .00000185  00000+0  15784-3 0  9994
2 65579  81.3067  19.8231 0004835 219.7994 140.2808 13.83267745 37373
PRAETORIAN SDA_617      
1 65580U 25203R   26158.67332536  .00000063  00000+0  46614-4 0  9996
2 65580  81.3043  19.7030 0006792 211.1713 148.9041 13.83149985 37373
PRAETORIAN SDA_618      
1 65581U 25203S   26158.72920501  .00000286  00000+0  24353-3 0  9990
2 65581  81.3026  19.2567 0009111 214.3882 145.6686 13.84669384 37409
PRAETORIAN SDA_619      
1 65582U 25203T   26158.68695056  .00000167  00000+0  14044-3 0  9994
2 65582  81.3051  19.5777 0007591 212.6734 147.3953 13.83804875 38010
PRAETORIAN SDA_620      
1 65583U 25203U   26158.71365312  .00000209  00000+0  17878-3 0  9993
2 65583  81.3036  19.5722 0007135 207.5558 152.5221 13.83616950 37385
PRAETORIAN SDA_621      
1 65584U 25203V   26158.68869348  .00000091  00000+0  71092-4 0  9996
2 65584  81.3026  19.5173 0006880 205.4115 154.6704 13.83800712 37387
PRAETORIAN SDA_601      
1 65585U 25203W   26158.65497816  .00000422  00000+0  37457-3 0  9995
2 65585  81.3047  19.8338 0004848 224.8353 135.2412 13.83166671 37366
